Station name not available
Feb 29, 2016 - 09:00 AM EST / 2016.02.29 1400 UTC
Wind: Variable at 2 MPH (2 KT):0
Visibility: greater than 7 mile(s):0
Temperature: 62 F (17 C)
Dew Point: 32 F (0 C)
Relative Humidity: 31%
Pressure (altimeter): 30.36 in. Hg (1028 hPa)
ob: UDYZ 291400Z VRB01MPS 9999 NSC 17/00 Q1028 R09/0///70 NOSIG
cycle: 14
