2022/09/03 14:00
UDYZ 031400Z 19003KT 9999 NSC 36/03 Q1013 R09/010070 NOSIG
