2023/01/06 17:30
UDYZ 061730Z VRB01KT 3500 BR NSC M01/M09 Q1016 NOSIG
