2023/06/15 11:00
UDYZ 151100Z 25021KT 9999 BKN040CB 25/09 Q1008 TEMPO -TSRA
