2022/08/31 08:30
UDYZ 310830Z 20003KT 150V240 9999 NSC 32/02 Q1015 R09/010070 NOSIG
