2023/04/26 10:00
UDYZ 261000Z 13003KT 020V180 9999 FEW040 23/M01 Q1013 NOSIG
