2022/08/26 08:30
UDYZ 260830Z VRB03KT 9999 NSC 30/05 Q1014 R09/010070 NOSIG
