2023/06/03 00:30
UDYZ 030030Z 09004KT 9999 FEW046 19/07 Q1016 NOSIG
