2023/02/12 21:30
UDYZ 122130Z 10001KT 9999 NSC M07/M13 Q1023 NOSIG
