2022/10/11 09:00
UDYZ 110900Z 19004KT 090V260 9999 NSC 22/02 Q1020 R09/010070 NOSIG
