2023/01/26 20:30
UDYZ 262030Z VRB01KT 6000 NSC M03/M14 Q1024 NOSIG
