2022/12/12 12:30
UDYZ 121230Z 00000KT 9999 BKN043 06/M02 Q1019 NOSIG
