2022/12/07 21:30
UDYZ 072130Z 00000KT 6000 BKN026 03/02 Q1023 NOSIG
