2022/12/05 01:30
UDYZ 050130Z 10003KT 9999 -RA OVC035 03/M02 Q1026 NOSIG
