2022/09/19 17:30
UDYZ 191730Z 04007KT 9999 NSC 26/02 Q1009 R09/010070 NOSIG
