2023/08/29 11:00
UDYZ 291100Z 23020KT 6000 VCTS SCT030CB 32/07 Q1003 TEMPO 22026G36KT -TSRA
