2022/12/26 22:30
UDYZ 262230Z 00000KT 2300 BR NSC M03/M05 Q1023 NOSIG
