2023/01/07 22:30
UDYZ 072230Z 36001KT 6000 NSC M00/M03 Q1016 NOSIG
