2022/10/15 18:00
UDYZ 151800Z 26005KT 6000 FEW043 14/12 Q1017 R09/010070 NOSIG
