2023/02/25 03:00
UDYZ 250300Z 17001KT 9999 NSC M06/M12 Q1025 NOSIG
