2023/01/10 13:30
UDYZ 101330Z 23002KT 9999 NSC 02/M09 Q1028 NOSIG
