2022/12/08 00:30
UDYZ 080030Z 32002KT 2300 BR SCT036 01/00 Q1024 NOSIG
