2023/03/22 20:30
UDYZ 222030Z 07001KT 9999 FEW040 09/00 Q1014 NOSIG
