2022/10/26 12:30
UDYZ 261230Z 14002KT 9999 NSC 18/02 Q1022 R09/010070 NOSIG
