2023/02/26 20:00
UDYZ 262000Z 00000KT 9999 NSC 04/M06 Q1028 NOSIG
