2022/12/26 13:30
UDYZ 261330Z 24004KT 6000 NSC 04/M02 Q1021 NOSIG
