2023/05/08 15:00
UDYZ 081500Z 29003KT 9999 SCT040CB 22/02 Q1010 NOSIG
