2023/09/13 15:30
UDYZ 131530Z VRB01KT 9999 SCT043CB 18/13 Q1016 NOSIG
