2023/08/28 16:30
UDYZ 281630Z 01006KT 9999 VCTS SCT040CB 29/07 Q1002 NOSIG
