2023/09/01 16:00
UDYZ 011600Z VRB01KT 9999 FEW046 30/11 Q1012 NOSIG
