2023/05/21 21:00
UDYZ 212100Z 36002KT 9999 NSC 11/10 Q1013 NOSIG
