2023/02/14 23:00
UDYZ 142300Z 13003KT 9999 NSC M10/M13 Q1017 NOSIG
