2022/10/24 01:30
UDYZ 240130Z 00000KT 9999 NSC 04/03 Q1021 R09/010070 NOSIG
