2023/04/30 22:30
UDYZ 302230Z 29002KT 9999 BKN040CB 12/04 Q1010 NOSIG
