2022/08/17 23:00
UDYZ 172300Z 04010KT 9999 NSC 28/08 Q1009 R09/010070 NOSIG
