2023/01/27 22:00
UDYZ 272200Z VRB02KT 3500 BR NSC M07/M14 Q1022 NOSIG
