2023/03/27 00:00
UDYZ 270000Z 05001KT 6000 -SHRA OVC033CB 12/10 Q1008 NOSIG
