2023/04/27 14:30
UDYZ 271430Z 19002KT 9999 SCT040CB 21/02 Q1011 NOSIG
