2023/09/06 11:30
UDYZ 061130Z 10005KT 070V140 9999 NSC 37/01 Q1012 NOSIG
