2022/12/03 12:00
UDYZ 031200Z 00000KT 6000 BKN018 09/05 Q1021 NOSIG
