2023/04/28 23:30
UDYZ 282330Z 35006KT 9999 BKN040CB 16/07 Q1009 NOSIG
