2022/12/24 18:00
UDYZ 241800Z 09004KT 3500 BR SCT046 05/M01 Q1015 NOSIG
