2023/04/21 17:30
UDYZ 211730Z 33003KT 9999 FEW040CB 12/09 Q1007 NOSIG
