2023/01/11 19:00
UDYZ 111900Z 00000KT 6000 BKN046 M03/M07 Q1033 NOSIG
