2022/10/05 08:00
UDYZ 050800Z VRB02KT 9999 NSC 27/M00 Q1021 R09/010070 NOSIG
