2023/02/02 21:30
UDYZ 022130Z 16004KT 6000 BKN036 02/M02 Q1011 NOSIG
