2023/09/13 07:30
UDYZ 130730Z VRB02KT 6000 SCT046 18/13 Q1018 NOSIG
