2022/10/30 11:00
UDYZ 301100Z 12002KT 9999 NSC 16/M01 Q1020 R09/010070 NOSIG
