2023/01/13 03:30
UDYZ 130330Z 25002KT 6000 SCT043 M06/M09 Q1028 NOSIG
