2022/11/21 17:30
UDYZ 211730Z 01001KT 6000 NSC 06/M00 Q1022 R09/010070 NOSIG
