2022/08/13 10:30
UDYZ 131030Z VRB03KT 9999 NSC 33/12 Q1008 R09/010070 NOSIG
