2022/10/12 22:00
UDYZ 122200Z 35002KT 9999 NSC 10/03 Q1019 R09/010070 NOSIG
