2022/12/31 18:30
UDYZ 311830Z 05001KT 3500 BR NSC M03/M09 Q1031 NOSIG
