2023/01/08 02:30
UDYZ 080230Z 05002KT 9999 NSC M02/M06 Q1017 NOSIG
