2023/02/01 13:00
UDYZ 011300Z 36001KT 6000 BKN036 04/00 Q1010 NOSIG
