2022/08/12 21:00
UDYZ 122100Z 33007KT 300V010 9999 NSC 26/11 Q1011 R09/010070 NOSIG
